OPTICUBE 04             
1 41851U 16067D   19054.22849269 -.00000006  00000-0  47887-5 0  9996
2 41851  97.9151 150.4813 0010228  55.4500 304.7685 14.96767116124645
AEROCUBE 8D             
1 41852U 16067E   19054.22317291  .00000388  00000-0  39291-4 0  9993
2 41852  97.9163 150.3026 0010966  55.7814 304.4445 14.96647695124622
AEROCUBE 8C             
1 41853U 16067F   19054.17645833 -.00000294  00000-0 -20502-4 0  9997
2 41853  97.9157 150.2008 0011042  55.4107 304.8154 14.96608064124610
PROMETHEUS 2-1          
1 41854U 16067G   19054.22594399  .00000342  00000-0  35167-4 0  9999
2 41854  97.9170 150.3370 0011599  56.0848 304.1475 14.96792638124626
PROMETHEUS 2-3          
1 41855U 16067H   19054.56286513  .00000144  00000-0  17907-4 0  9995
2 41855  97.9172 150.6894 0011741  54.8980 305.3340 14.96795231124676
INS-1B                  
1 41954U 17008G   19054.37980971  .00001098  00000-0  48771-4 0  9991
2 41954  97.4145 120.8723 0009242 181.1234 178.9983 15.23634105112240
BGUSAT                  
1 41999U 17008BD  19054.78239135  .00001718  00000-0  70468-4 0  9991
2 41999  97.4203 123.1773 0007879 193.5406 166.5622 15.25602536111772
DIDO-2                  
1 42000U 17008BE  19054.43416742  .00000811  00000-0  36740-4 0  9996
2 42000  97.4158 121.4533 0007962 199.2516 160.8421 15.23673255111653
PEASSS                  
1 42015U 17008BV  19054.59972407  .00000966  00000-0  42117-4 0  9990
2 42015  97.4162 122.4012 0005750 201.4031 158.6967 15.24577096112218
AL-FARABI 1             
1 42016U 17008BW  19054.18419151  .00001310  00000-0  55161-4 0  9995
2 42016  97.4174 122.4052 0005610 202.0276 158.0721 15.25133883112292
NAYIF-1 (EO-88)         
1 42017U 17008BX  19054.17407302  .00001290  00000-0  54321-4 0  9994
2 42017  97.4171 122.4041 0005582 202.3570 157.7426 15.25163559112310
HAVELSAT                
1 42700U 98067LH  19054.64235271  .00994703  11831-4  54632-3 0  9995
2 42700  51.6144 125.7875 0007634  17.8508 342.2776 16.18797057101857
CXBN-2                  
1 42704U 98067LM  19054.63073599  .00814202  42583-3  54665-3 0  9999
2 42704  51.6195 128.0722 0008107  15.9494 344.1776 16.16214259101748
PHOENIX                 
1 42706U 98067LP  19054.68330288  .00050300  00000-0  20495-3 0  9997
2 42706  51.6260 141.4684 0002987  18.4277 341.6835 15.85635145101560
QBEE50-LTU-OC           
1 42708U 98067LR  19054.93835384  .01509431  11943-4  60355-3 0  9990
2 42708  51.6112 125.1792 0007222  16.1604 150.8062 16.22803487101743
ALTAIR PATHFINDER       
1 42711U 98067LS  19054.75924083  .00022086  00000-0  16089-3 0  9997
2 42711  51.6333 162.4991 0003571  44.8551 315.2736 15.73227454100955
SHARC                   
1 42712U 98067LT  19054.71779005  .00068812  00000-0  30688-3 0  9994
2 42712  51.6301 157.7069 0003117   6.2929 353.8113 15.83615011101253
ZA-AEROSAT              
1 42713U 98067LU  19054.70185635  .00047758  00000-0  21284-3 0  9992
2 42713  51.6324 146.9395 0003162  23.4986 336.6161 15.83779277101151
CSUNSAT1                
1 42715U 98067LW  19054.67915253  .00063012  00000-0  23831-3 0  9998
2 42715  51.6292 143.7491 0003986  27.0470 333.0742 15.87071343101194
SPACECUBE               
1 42717U 98067LY  19054.68352933  .00881000  51520-3  56351-3 0  9995
2 42717  51.6081 127.4637 0007570  16.1137 344.0119 16.16906530100776
NJUST-1                 
1 42722U 98067MB  19054.74547581  .00044450  00000-0  23299-3 0  9992
2 42722  51.6373 151.5300 0003090  76.6480  59.8447 15.80316837100169
LILACSAT-1 (LO-90)      
1 42725U 98067ME  19054.71739051  .00162317  21581-4  39151-3 0  9995
2 42725  51.6333 137.6058 0004788  19.1212 117.7791 15.96061714100257
NSIGHT                  
1 42726U 98067MF  19054.75209511  .00015730  00000-0  15083-3 0  9996
2 42726  51.6375 174.6551 0004760  92.1569 267.9972 15.66826383 99770
SNUSAT-1B               
1 42727U 98067MG  19054.68206103  .00126662  17441-4  32714-3 0  9991
2 42727  51.6252 138.3139 0005481  29.4248 330.7067 15.94901861100203
SNUSAT-1                
1 42733U 98067MN  19054.64740916  .00227825  33594-4  38245-3 0  9994
2 42733  51.6220 133.4831 0007045  20.6288 339.5006 16.02309180100155
BEEAGLESAT              
1 42736U 98067MR  19054.51153185  .00069235  00000-0  24538-3 0  9990
2 42736  51.6285 143.2904 0002998  57.8450 302.2846 15.88355548100076
UCLSAT                  
1 42765U 17036A   19054.85655270  .00001013  00000-0  46773-4 0  9994
2 42765  97.3674 115.2438 0009927 273.8565  86.1536 15.22444851 92993
LITUANICASAT-2          
1 42768U 17036D   19054.83208097  .00001598  00000-0  72227-4 0  9997
2 42768  97.3703 114.7795 0013714 262.4489  97.5190 15.22310733 92833
AALTO-1                 
1 42775U 17036L   19054.81385994  .00000637  00000-0  31662-4 0  9996
2 42775  97.3663 114.2052 0012438 262.2988  97.6836 15.21135999 92747
URSA MAIOR              
1 42776U 17036M   19054.12626240  .00000705  00000-0  34583-4 0  9994
2 42776  97.3671 113.6449 0012251 264.9627  95.0211 15.21253408 92646
COMPASS 2               
1 42777U 17036N   19053.74383049  .00001379  00000-0  62473-4 0  9996
2 42777  97.3705 114.1497 0011037 268.3312  91.6660 15.22497387 92629
DIAMOND RED             
1 42783U 17036U   19053.87633041  .00000846  00000-0  40121-4 0  9991
2 42783  97.3676 113.9747 0010582 278.3994  81.6042 15.21949837 92634
PEGASUS                 
1 42784U 17036V   19054.59958684  .00000905  00000-0  42388-4 0  9998
2 42784  97.3678 114.8493 0010484 275.2704  84.7336 15.22212833 92754
DIAMOND GREEN           
1 42785U 17036W   19054.40110535  .00000808  00000-0  38455-4 0  9996
2 42785  97.3677 114.5094 0010483 276.9912  83.0132 15.21949583 92705
DIAMOND BLUE            
1 42786U 17036X   19053.93987703  .00000834  00000-0  39585-4 0  9997
2 42786  97.3678 114.0568 0010330 279.1850  80.8218 15.21949249 92715
NUDTSAT                 
1 42787U 17036Y   19054.20507018  .00001500  00000-0  66611-4 0  9997
2 42787  97.3716 114.9625 0010602 283.8316  76.1741 15.23041404 92563
SUCHAI                  
1 42788U 17036Z   19054.11030996  .00001151  00000-0  52506-4 0  9994
2 42788  97.3682 114.5950 0010064 276.4652  83.5438 15.22575628 92762
SKCUBE                  
1 42789U 17036AA  19053.92216740  .00001069  00000-0  49108-4 0  9998
2 42789  97.3679 114.3744 0009928 277.4292  82.5817 15.22497158 92655
VZLUSAT-1               
1 42790U 17036AB  19053.86368280  .00001437  00000-0  63951-4 0  9991
2 42790  97.3690 114.6315 0009521 276.9626  83.0528 15.23046603 92663
ROBUSTA-1B              
1 42792U 17036AD  19053.73399121  .00001100  00000-0  50200-4 0  9997
2 42792  97.3679 114.3082 0009489 279.1216  80.8947 15.22658410 92645
CICERO 6                
1 42793U 17036AE  19054.81859977  .00000720  00000-0  34185-4 0  9999
2 42793  97.3664 115.2435 0008727 276.6861  83.3382 15.22349995 92875
D-SAT                   
1 42794U 17036AF  19053.91219308  .00000078  00000-0  12145-4 0  9996
2 42794  97.5570 103.6062 0127187 166.8340 193.6251 14.91024435 91081
TOKI                    
1 42820U 98067MU  19054.51718755  .00070823  00000-0  26964-3 0  9994
2 42820  51.6289 147.8877 0003726  13.0467 347.0633 15.86891410 93472
MAZAALAI (NUMSAT-1)     
1 42822U 98067MW  19054.51518786  .00062774  00000-0  25548-3 0  9991
2 42822  51.6309 149.4188 0003524  19.0687 341.0449 15.85566014 93439
BRAC ONNESHA            
1 42823U 98067MX  19053.64948262  .00069648  00000-0  27527-3 0  9997
2 42823  51.6281 153.3752 0004206  28.2280 331.8951 15.86127594 93307
NIGERIAEDUSAT-1         
1 42824U 98067MY  19054.49817549  .00064449  00000-0  26542-3 0  9995
2 42824  51.6314 150.1182 0003862  39.3008 320.8275 15.85308175 93419
CORVUS BC2              
1 42846U 17042X   19054.18796618  .00000287  00000-0  33632-4 0  9991
2 42846  97.5790 312.7051 0011177  81.3564 278.8921 14.91924239 87798
CORVUS BC1              
1 42847U 17042Y   19054.21599775  .00000062  00000-0  11355-4 0  9990
2 42847  97.5790 312.8198 0010810  80.8618 279.3824 14.92024472 87798
SILU-1 (SILKROAD 1)     
1 42903U 17021F   19054.86676593  .00118136  13545-4  30163-3 0  9996
2 42903  42.7707 224.5807 0017736 303.1925 166.9231 15.94519952 89748
MIRATA                  
1 43015U 17073C   19054.86297514  .00000599  00000-0  52273-4 0  9998
2 43015  97.7180 340.5798 0256388 171.5996 188.9635 14.78708228 68329
MAKERSAT 0              
1 43016U 17073D   19053.77809364  .00000376  00000-0  34821-4 0  9992
2 43016  97.7213 339.7235 0258243 175.3346 185.0365 14.78540405 68156
ASTERIA                 
1 43020U 98067NH  19054.84174600  .00016090  00000-0  16009-3 0  9993
2 43020  51.6417 184.3836 0002444  40.1963 319.9213 15.65883609 71833
DELLINGR (RBLE)         
1 43021U 98067NJ  19054.81672206  .00007665  00000-0  95180-4 0  9992
2 43021  51.6385 191.6365 0002383  32.9537 327.1605 15.61093280 71733
OSIRIS-3U               
1 43027U 98067NL  19054.69098849  .00379135  75007-4  60333-3 0  9997
2 43027  51.6296 155.9008 0008678 356.0939   4.0003 16.03086722 72077
AEROCUBE 7B (OCSD B)    
1 43042U 17071F   19054.18605658  .00003286  00000-0  89756-4 0  9995
2 43042  51.6374 257.3026 0005441  98.2137 261.9465 15.40418990 68277
AEROCUBE 7C (OCSD C)    
1 43043U 17071G   19053.92674080  .00002502  00000-0  70747-4 0  9992
2 43043  51.6377 258.5830 0005548  98.6931 261.4682 15.40405735 68203
CHEFSAT                 
1 43044U 17071H   19054.54650187  .00005641  00000-0  13766-3 0  9998
2 43044  51.6375 252.3003 0005343 102.0163 258.1422 15.42427224 68345
ASGARDIA 1              
1 43049U 17071N   19054.14751769  .00002844  00000-0  78754-4 0  9998
2 43049  51.6379 257.0758 0003082 115.3130 244.8175 15.40521465 68237
ISARA                   
1 43050U 17071P   19054.13915385  .00004890  00000-0  12223-3 0  9996
2 43050  51.6369 254.8021 0002948 114.2350 245.8944 15.42012544 68261
